[{"OBJECT_NAME":"ONEWEB-0152","OBJECT_ID":"2021-025B","EPOCH":"2026-03-09T16:49:53.578848","MEAN_MOTION":13.13469737,"ECCENTRICITY":0.00016064,"INCLINATION":87.9038,"RA_OF_ASC_NODE":340.0102,"ARG_OF_PERICENTER":80.6679,"MEAN_ANOMALY":279.4632,"EPHEMERIS_TYPE":0,"CLASSIFICATION_TYPE":"U","NORAD_CAT_ID":48043,"ELEMENT_SET_NO":999,"REV_AT_EPOCH":24049,"BSTAR":-0.00073429043,"MEAN_MOTION_DOT":-2.55e-6,"MEAN_MOTION_DDOT":0},{"OBJECT_NAME":"DELTA 1 DEB","OBJECT_ID":"1975-052KF","EPOCH":"2026-03-06T18:28:34.577760","MEAN_MOTION":13.31068139,"ECCENTRICITY":0.01116365,"INCLINATION":99.7769,"RA_OF_ASC_NODE":1.4594,"ARG_OF_PERICENTER":57.1487,"MEAN_ANOMALY":332.2952,"EPHEMERIS_TYPE":0,"CLASSIFICATION_TYPE":"U","NORAD_CAT_ID":26827,"ELEMENT_SET_NO":999,"REV_AT_EPOCH":58153,"BSTAR":0.0018309461,"MEAN_MOTION_DOT":8.59e-6,"MEAN_MOTION_DDOT":0}]
